ONEWEB-0168             
1 48068U 21025AC  25265.22525416  .00000346  00000+0  91341-3 0  9996
2 48068  87.9050  13.4415 0001888 104.1093 256.0246 13.13467822218382
ONEWEB-0173             
1 48069U 21025AD  25265.29296374  .00000454  00000+0  12078-2 0  9991
2 48069  87.9050  13.4360 0001892 113.5274 246.6054 13.13471680218639
ONEWEB-0171             
1 48070U 21025AE  25265.25403001 -.00000184  00000+0 -53825-3 0  9994
2 48070  87.9040  13.4788 0001667 104.1847 255.9467 13.13471380218443
ONEWEB-0172             
1 48071U 21025AF  25265.23372023 -.00000081  00000+0 -25727-3 0  9998
2 48071  87.9049  13.4521 0001719 106.2321 253.8998 13.13468729219334
ONEWEB-0174             
1 48072U 21025AG  25265.29126673  .00000418  00000+0  11110-2 0  9995
2 48072  87.9045  13.4523 0001909  99.6918 260.4427 13.13467892218667
ONEWEB-0175             
1 48073U 21025AH  25265.24556365 -.00000182  00000+0 -53441-3 0  9990
2 48073  87.9046  13.4261 0001456 108.2189 251.9098 13.13471035218317
ONEWEB-0177             
1 48074U 21025AJ  25265.25740908 -.00000402  00000+0 -11357-2 0  9994
2 48074  87.9050  13.4412 0001957 103.7826 256.3521 13.13470285218502
ONEWEB-0178             
1 48075U 21025AK  25265.27616556  .00000088  00000+0  20483-3 0  9997
2 48075  87.9048  13.4835 0001728 110.1528 249.9787 13.13471121218553
ONEWEB-0108             
1 48076U 21025AL  25265.23541104  .00000046  00000+0  91074-4 0  9999
2 48076  87.9046  13.4373 0001786  92.8869 267.2465 13.13470848218479
ONEWEB-0169             
1 48077U 21025AM  25265.26756569 -.00000095  00000+0 -29521-3 0  9999
2 48077  87.9048  13.4541 0001825  93.7311 266.4026 13.13472311217138
ONEWEB-0176             
1 48210U 21031A   25265.24438391 -.00000318  00000+0 -89246-3 0  9991
2 48210  87.9078 343.0560 0001776 104.3563 255.7764 13.14502522213119
ONEWEB-0184             
1 48211U 21031B   25265.21743058  .00000210  00000+0  53256-3 0  9999
2 48211  87.9085 343.0339 0001418 128.7753 231.3504 13.14502111213088
ONEWEB-0179             
1 48212U 21031C   25265.26420048  .00000048  00000+0  95873-4 0  9997
2 48212  87.9077 343.0399 0001938 100.8336 259.3012 13.14503817213135
ONEWEB-0180             
1 48213U 21031D   25265.22059289  .00000155  00000+0  38265-3 0  9999
2 48213  87.9087 343.0391 0001944 108.3649 251.7693 13.14504143213017
ONEWEB-0218             
1 48214U 21031E   25265.24279523 -.00000161  00000+0 -46777-3 0  9993
2 48214  87.9090 343.0354 0001708 131.2883 228.8394 13.14503949213177
ONEWEB-0209             
1 48215U 21031F   25265.23170375  .00000022  00000+0  25411-4 0  9995
2 48215  87.9082 343.0805 0002009 102.7422 257.3933 13.14504476213179
