[{"OBJECT_NAME":"ONEWEB-0168","OBJECT_ID":"2021-025AC","EPOCH":"2025-09-22T05:24:21.959424","MEAN_MOTION":13.13467822,"ECCENTRICITY":0.00018885,"INCLINATION":87.905,"RA_OF_ASC_NODE":13.4415,"ARG_OF_PERICENTER":104.1093,"MEAN_ANOMALY":256.0246,"EPHEMERIS_TYPE":0,"CLASSIFICATION_TYPE":"U","NORAD_CAT_ID":48068,"ELEMENT_SET_NO":999,"REV_AT_EPOCH":21838,"BSTAR":0.00091341301,"MEAN_MOTION_DOT":3.46e-6,"MEAN_MOTION_DDOT":0},{"OBJECT_NAME":"ONEWEB-0173","OBJECT_ID":"2021-025AD","EPOCH":"2025-09-22T07:01:52.067136","MEAN_MOTION":13.1347168,"ECCENTRICITY":0.00018927,"INCLINATION":87.905,"RA_OF_ASC_NODE":13.436,"ARG_OF_PERICENTER":113.5274,"MEAN_ANOMALY":246.6054,"EPHEMERIS_TYPE":0,"CLASSIFICATION_TYPE":"U","NORAD_CAT_ID":48069,"ELEMENT_SET_NO":999,"REV_AT_EPOCH":21863,"BSTAR":0.0012078482,"MEAN_MOTION_DOT":4.54e-6,"MEAN_MOTION_DDOT":0},{"OBJECT_NAME":"ONEWEB-0171","OBJECT_ID":"2021-025AE","EPOCH":"2025-09-22T06:05:48.192864","MEAN_MOTION":13.1347138,"ECCENTRICITY":0.00016673,"INCLINATION":87.904,"RA_OF_ASC_NODE":13.4788,"ARG_OF_PERICENTER":104.1847,"MEAN_ANOMALY":255.9467,"EPHEMERIS_TYPE":0,"CLASSIFICATION_TYPE":"U","NORAD_CAT_ID":48070,"ELEMENT_SET_NO":999,"REV_AT_EPOCH":21844,"BSTAR":-0.0005382488,"MEAN_MOTION_DOT":-1.84e-6,"MEAN_MOTION_DDOT":0},{"OBJECT_NAME":"ONEWEB-0172","OBJECT_ID":"2021-025AF","EPOCH":"2025-09-22T05:36:33.427872","MEAN_MOTION":13.13468729,"ECCENTRICITY":0.00017193,"INCLINATION":87.9049,"RA_OF_ASC_NODE":13.4521,"ARG_OF_PERICENTER":106.2321,"MEAN_ANOMALY":253.8998,"EPHEMERIS_TYPE":0,"CLASSIFICATION_TYPE":"U","NORAD_CAT_ID":48071,"ELEMENT_SET_NO":999,"REV_AT_EPOCH":21933,"BSTAR":-0.00025726898,"MEAN_MOTION_DOT":-8.1e-7,"MEAN_MOTION_DDOT":0},{"OBJECT_NAME":"ONEWEB-0174","OBJECT_ID":"2021-025AG","EPOCH":"2025-09-22T06:59:25.445472","MEAN_MOTION":13.13467892,"ECCENTRICITY":0.00019092,"INCLINATION":87.9045,"RA_OF_ASC_NODE":13.4523,"ARG_OF_PERICENTER":99.6918,"MEAN_ANOMALY":260.4427,"EPHEMERIS_TYPE":0,"CLASSIFICATION_TYPE":"U","NORAD_CAT_ID":48072,"ELEMENT_SET_NO":999,"REV_AT_EPOCH":21866,"BSTAR":0.0011110329,"MEAN_MOTION_DOT":4.18e-6,"MEAN_MOTION_DDOT":0},{"OBJECT_NAME":"ONEWEB-0175","OBJECT_ID":"2021-025AH","EPOCH":"2025-09-22T05:53:36.699360","MEAN_MOTION":13.13471035,"ECCENTRICITY":0.00014566,"INCLINATION":87.9046,"RA_OF_ASC_NODE":13.4261,"ARG_OF_PERICENTER":108.2189,"MEAN_ANOMALY":251.9098,"EPHEMERIS_TYPE":0,"CLASSIFICATION_TYPE":"U","NORAD_CAT_ID":48073,"ELEMENT_SET_NO":999,"REV_AT_EPOCH":21831,"BSTAR":-0.00053440624,"MEAN_MOTION_DOT":-1.82e-6,"MEAN_MOTION_DDOT":0},{"OBJECT_NAME":"ONEWEB-0177","OBJECT_ID":"2021-025AJ","EPOCH":"2025-09-22T06:10:40.144512","MEAN_MOTION":13.13470285,"ECCENTRICITY":0.00019577,"INCLINATION":87.905,"RA_OF_ASC_NODE":13.4412,"ARG_OF_PERICENTER":103.7826,"MEAN_ANOMALY":256.3521,"EPHEMERIS_TYPE":0,"CLASSIFICATION_TYPE":"U","NORAD_CAT_ID":48074,"ELEMENT_SET_NO":999,"REV_AT_EPOCH":21850,"BSTAR":-0.0011356711,"MEAN_MOTION_DOT":-4.02e-6,"MEAN_MOTION_DDOT":0},{"OBJECT_NAME":"ONEWEB-0178","OBJECT_ID":"2021-025AK","EPOCH":"2025-09-22T06:37:40.704384","MEAN_MOTION":13.13471121,"ECCENTRICITY":0.00017285,"INCLINATION":87.9048,"RA_OF_ASC_NODE":13.4835,"ARG_OF_PERICENTER":110.1528,"MEAN_ANOMALY":249.9787,"EPHEMERIS_TYPE":0,"CLASSIFICATION_TYPE":"U","NORAD_CAT_ID":48075,"ELEMENT_SET_NO":999,"REV_AT_EPOCH":21855,"BSTAR":0.00020482726,"MEAN_MOTION_DOT":8.8e-7,"MEAN_MOTION_DDOT":0},{"OBJECT_NAME":"ONEWEB-0108","OBJECT_ID":"2021-025AL","EPOCH":"2025-09-22T05:38:59.513856","MEAN_MOTION":13.13470848,"ECCENTRICITY":0.0001786,"INCLINATION":87.9046,"RA_OF_ASC_NODE":13.4373,"ARG_OF_PERICENTER":92.8869,"MEAN_ANOMALY":267.2465,"EPHEMERIS_TYPE":0,"CLASSIFICATION_TYPE":"U","NORAD_CAT_ID":48076,"ELEMENT_SET_NO":999,"REV_AT_EPOCH":21847,"BSTAR":9.1073722e-5,"MEAN_MOTION_DOT":4.6e-7,"MEAN_MOTION_DDOT":0},{"OBJECT_NAME":"ONEWEB-0169","OBJECT_ID":"2021-025AM","EPOCH":"2025-09-22T06:25:17.675616","MEAN_MOTION":13.13472311,"ECCENTRICITY":0.00018252,"INCLINATION":87.9048,"RA_OF_ASC_NODE":13.4541,"ARG_OF_PERICENTER":93.7311,"MEAN_ANOMALY":266.4026,"EPHEMERIS_TYPE":0,"CLASSIFICATION_TYPE":"U","NORAD_CAT_ID":48077,"ELEMENT_SET_NO":999,"REV_AT_EPOCH":21713,"BSTAR":-0.00029520916,"MEAN_MOTION_DOT":-9.5e-7,"MEAN_MOTION_DDOT":0},{"OBJECT_NAME":"ONEWEB-0176","OBJECT_ID":"2021-031A","EPOCH":"2025-09-22T05:51:54.769824","MEAN_MOTION":13.14502522,"ECCENTRICITY":0.00017769,"INCLINATION":87.9078,"RA_OF_ASC_NODE":343.056,"ARG_OF_PERICENTER":104.3563,"MEAN_ANOMALY":255.7764,"EPHEMERIS_TYPE":0,"CLASSIFICATION_TYPE":"U","NORAD_CAT_ID":48210,"ELEMENT_SET_NO":999,"REV_AT_EPOCH":21311,"BSTAR":-0.0008924631,"MEAN_MOTION_DOT":-3.18e-6,"MEAN_MOTION_DDOT":0},{"OBJECT_NAME":"ONEWEB-0184","OBJECT_ID":"2021-031B","EPOCH":"2025-09-22T05:13:06.002112","MEAN_MOTION":13.14502111,"ECCENTRICITY":0.00014184,"INCLINATION":87.9085,"RA_OF_ASC_NODE":343.0339,"ARG_OF_PERICENTER":128.7753,"MEAN_ANOMALY":231.3504,"EPHEMERIS_TYPE":0,"CLASSIFICATION_TYPE":"U","NORAD_CAT_ID":48211,"ELEMENT_SET_NO":999,"REV_AT_EPOCH":21308,"BSTAR":0.00053256311,"MEAN_MOTION_DOT":2.1e-6,"MEAN_MOTION_DDOT":0},{"OBJECT_NAME":"ONEWEB-0179","OBJECT_ID":"2021-031C","EPOCH":"2025-09-22T06:20:26.921472","MEAN_MOTION":13.14503817,"ECCENTRICITY":0.0001938,"INCLINATION":87.9077,"RA_OF_ASC_NODE":343.0399,"ARG_OF_PERICENTER":100.8336,"MEAN_ANOMALY":259.3012,"EPHEMERIS_TYPE":0,"CLASSIFICATION_TYPE":"U","NORAD_CAT_ID":48212,"ELEMENT_SET_NO":999,"REV_AT_EPOCH":21313,"BSTAR":9.5872989e-5,"MEAN_MOTION_DOT":4.8e-7,"MEAN_MOTION_DDOT":0},{"OBJECT_NAME":"ONEWEB-0180","OBJECT_ID":"2021-031D","EPOCH":"2025-09-22T05:17:39.225696","MEAN_MOTION":13.14504143,"ECCENTRICITY":0.00019449,"INCLINATION":87.9087,"RA_OF_ASC_NODE":343.0391,"ARG_OF_PERICENTER":108.3649,"MEAN_ANOMALY":251.7693,"EPHEMERIS_TYPE":0,"CLASSIFICATION_TYPE":"U","NORAD_CAT_ID":48213,"ELEMENT_SET_NO":999,"REV_AT_EPOCH":21301,"BSTAR":0.00038265136,"MEAN_MOTION_DOT":1.55e-6,"MEAN_MOTION_DDOT":0},{"OBJECT_NAME":"ONEWEB-0218","OBJECT_ID":"2021-031E","EPOCH":"2025-09-22T05:49:37.507872","MEAN_MOTION":13.14503949,"ECCENTRICITY":0.00017086,"INCLINATION":87.909,"RA_OF_ASC_NODE":343.0354,"ARG_OF_PERICENTER":131.2883,"MEAN_ANOMALY":228.8394,"EPHEMERIS_TYPE":0,"CLASSIFICATION_TYPE":"U","NORAD_CAT_ID":48214,"ELEMENT_SET_NO":999,"REV_AT_EPOCH":21317,"BSTAR":-0.00046776597,"MEAN_MOTION_DOT":-1.61e-6,"MEAN_MOTION_DDOT":0},{"OBJECT_NAME":"ONEWEB-0209","OBJECT_ID":"2021-031F","EPOCH":"2025-09-22T05:33:39.204000","MEAN_MOTION":13.14504476,"ECCENTRICITY":0.0002009,"INCLINATION":87.9082,"RA_OF_ASC_NODE":343.0805,"ARG_OF_PERICENTER":102.7422,"MEAN_ANOMALY":257.3933,"EPHEMERIS_TYPE":0,"CLASSIFICATION_TYPE":"U","NORAD_CAT_ID":48215,"ELEMENT_SET_NO":999,"REV_AT_EPOCH":21317,"BSTAR":2.5411414e-5,"MEAN_MOTION_DOT":2.2e-7,"MEAN_MOTION_DDOT":0}]
